CCSDS_OMM_VERS = 2.0
CREATION_DATE  = 
ORIGINATOR     = 

OBJECT_NAME    = KUIPER-00214
OBJECT_ID      = 2026-030Q
CENTER_NAME    = EARTH
REF_FRAME      = TEME
TIME_SYSTEM    = UTC
MEAN_ELEMENT_THEORY = SGP/SGP4

EPOCH          = 2026-02-24T08:18:28.822752
MEAN_MOTION    = 15.36155902
ECCENTRICITY   = .0001728
INCLINATION    = 51.8852
RA_OF_ASC_NODE = 283.3884
ARG_OF_PERICENTER = 151.4649
MEAN_ANOMALY   = 208.6433

EPHEMERIS_TYPE = 0
CLASSIFICATION_TYPE = U
NORAD_CAT_ID   = 67778
ELEMENT_SET_NO = 999
REV_AT_EPOCH   = 304
BSTAR          = .55884E-3
MEAN_MOTION_DOT = .19658E-3
MEAN_MOTION_DDOT = 0

CCSDS_OMM_VERS = 2.0
CREATION_DATE  = 
ORIGINATOR     = 

OBJECT_NAME    = KUIPER-00215
OBJECT_ID      = 2026-030R
CENTER_NAME    = EARTH
REF_FRAME      = TEME
TIME_SYSTEM    = UTC
MEAN_ELEMENT_THEORY = SGP/SGP4

EPOCH          = 2026-02-24T08:42:59.610816
MEAN_MOTION    = 15.33922240
ECCENTRICITY   = .0009977
INCLINATION    = 51.8851
RA_OF_ASC_NODE = 283.4995
ARG_OF_PERICENTER = 20.8378
MEAN_ANOMALY   = 339.3012

EPHEMERIS_TYPE = 0
CLASSIFICATION_TYPE = U
NORAD_CAT_ID   = 67779
ELEMENT_SET_NO = 999
REV_AT_EPOCH   = 304
BSTAR          = .58897E-3
MEAN_MOTION_DOT = .19318E-3
MEAN_MOTION_DDOT = 0

CCSDS_OMM_VERS = 2.0
CREATION_DATE  = 
ORIGINATOR     = 

OBJECT_NAME    = KUIPER-00218
OBJECT_ID      = 2026-030S
CENTER_NAME    = EARTH
REF_FRAME      = TEME
TIME_SYSTEM    = UTC
MEAN_ELEMENT_THEORY = SGP/SGP4

EPOCH          = 2026-02-24T05:28:00.895296
MEAN_MOTION    = 15.34627764
ECCENTRICITY   = .0006269
INCLINATION    = 51.8850
RA_OF_ASC_NODE = 284.0909
ARG_OF_PERICENTER = 17.4563
MEAN_ANOMALY   = 342.6637

EPHEMERIS_TYPE = 0
CLASSIFICATION_TYPE = U
NORAD_CAT_ID   = 67780
ELEMENT_SET_NO = 999
REV_AT_EPOCH   = 302
BSTAR          = .72235E-3
MEAN_MOTION_DOT = .24318E-3
MEAN_MOTION_DDOT = 0

CCSDS_OMM_VERS = 2.0
CREATION_DATE  = 
ORIGINATOR     = 

OBJECT_NAME    = KUIPER-00220
OBJECT_ID      = 2026-030T
CENTER_NAME    = EARTH
REF_FRAME      = TEME
TIME_SYSTEM    = UTC
MEAN_ELEMENT_THEORY = SGP/SGP4

EPOCH          = 2026-02-24T05:32:51.582048
MEAN_MOTION    = 15.34145938
ECCENTRICITY   = .0007905
INCLINATION    = 51.8825
RA_OF_ASC_NODE = 284.1095
ARG_OF_PERICENTER = 18.2408
MEAN_ANOMALY   = 341.8860

EPHEMERIS_TYPE = 0
CLASSIFICATION_TYPE = U
NORAD_CAT_ID   = 67781
ELEMENT_SET_NO = 999
REV_AT_EPOCH   = 302
BSTAR          = .72783E-3
MEAN_MOTION_DOT = .24137E-3
MEAN_MOTION_DDOT = 0

CCSDS_OMM_VERS = 2.0
CREATION_DATE  = 
ORIGINATOR     = 

OBJECT_NAME    = KUIPER-00222
OBJECT_ID      = 2026-030U
CENTER_NAME    = EARTH
REF_FRAME      = TEME
TIME_SYSTEM    = UTC
MEAN_ELEMENT_THEORY = SGP/SGP4

EPOCH          = 2026-02-24T05:48:18.373248
MEAN_MOTION    = 15.32425930
ECCENTRICITY   = .0017092
INCLINATION    = 51.8817
RA_OF_ASC_NODE = 284.1765
ARG_OF_PERICENTER = 23.9576
MEAN_ANOMALY   = 336.2201

EPHEMERIS_TYPE = 0
CLASSIFICATION_TYPE = U
NORAD_CAT_ID   = 67782
ELEMENT_SET_NO = 999
REV_AT_EPOCH   = 302
BSTAR          = .809E-3
MEAN_MOTION_DOT = .2553E-3
MEAN_MOTION_DDOT = 0

CCSDS_OMM_VERS = 2.0
CREATION_DATE  = 
ORIGINATOR     = 

OBJECT_NAME    = KUIPER-00223
OBJECT_ID      = 2026-030V
CENTER_NAME    = EARTH
REF_FRAME      = TEME
TIME_SYSTEM    = UTC
MEAN_ELEMENT_THEORY = SGP/SGP4

EPOCH          = 2026-02-24T08:45:58.172832
MEAN_MOTION    = 15.33646312
ECCENTRICITY   = .0011929
INCLINATION    = 51.8838
RA_OF_ASC_NODE = 283.5106
ARG_OF_PERICENTER = 20.7383
MEAN_ANOMALY   = 339.4084

EPHEMERIS_TYPE = 0
CLASSIFICATION_TYPE = U
NORAD_CAT_ID   = 67783
ELEMENT_SET_NO = 999
REV_AT_EPOCH   = 304
BSTAR          = .57015E-3
MEAN_MOTION_DOT = .18533E-3
MEAN_MOTION_DDOT = 0

CCSDS_OMM_VERS = 2.0
CREATION_DATE  = 
ORIGINATOR     = 

OBJECT_NAME    = KUIPER-00225
OBJECT_ID      = 2026-030W
CENTER_NAME    = EARTH
REF_FRAME      = TEME
TIME_SYSTEM    = UTC
MEAN_ELEMENT_THEORY = SGP/SGP4

EPOCH          = 2026-02-24T05:20:58.271424
MEAN_MOTION    = 15.35271607
ECCENTRICITY   = .0003559
INCLINATION    = 51.8823
RA_OF_ASC_NODE = 284.0570
ARG_OF_PERICENTER = 9.1114
MEAN_ANOMALY   = 350.9935

EPHEMERIS_TYPE = 0
CLASSIFICATION_TYPE = U
NORAD_CAT_ID   = 67784
ELEMENT_SET_NO = 999
REV_AT_EPOCH   = 302
BSTAR          = .71195E-3
MEAN_MOTION_DOT = .24457E-3
MEAN_MOTION_DDOT = 0

CCSDS_OMM_VERS = 2.0
CREATION_DATE  = 
ORIGINATOR     = 

OBJECT_NAME    = KUIPER-00226
OBJECT_ID      = 2026-030X
CENTER_NAME    = EARTH
REF_FRAME      = TEME
TIME_SYSTEM    = UTC
MEAN_ELEMENT_THEORY = SGP/SGP4

EPOCH          = 2026-02-24T05:55:54.654240
MEAN_MOTION    = 15.31590390
ECCENTRICITY   = .0019693
INCLINATION    = 51.8812
RA_OF_ASC_NODE = 284.2115
ARG_OF_PERICENTER = 30.7595
MEAN_ANOMALY   = 329.4539

EPHEMERIS_TYPE = 0
CLASSIFICATION_TYPE = U
NORAD_CAT_ID   = 67785
ELEMENT_SET_NO = 999
REV_AT_EPOCH   = 302
BSTAR          = -.56976E-4
MEAN_MOTION_DOT = -.2153E-4
MEAN_MOTION_DDOT = 0

CCSDS_OMM_VERS = 2.0
CREATION_DATE  = 
ORIGINATOR     = 

OBJECT_NAME    = KUIPER-00259
OBJECT_ID      = 2026-030Y
CENTER_NAME    = EARTH
REF_FRAME      = TEME
TIME_SYSTEM    = UTC
MEAN_ELEMENT_THEORY = SGP/SGP4

EPOCH          = 2026-02-24T08:37:19.700256
MEAN_MOTION    = 15.34464993
ECCENTRICITY   = .0007754
INCLINATION    = 51.8820
RA_OF_ASC_NODE = 283.4686
ARG_OF_PERICENTER = 11.9754
MEAN_ANOMALY   = 348.1414

EPHEMERIS_TYPE = 0
CLASSIFICATION_TYPE = U
NORAD_CAT_ID   = 67786
ELEMENT_SET_NO = 999
REV_AT_EPOCH   = 304
BSTAR          = .58101E-3
MEAN_MOTION_DOT = .19376E-3
MEAN_MOTION_DDOT = 0

CCSDS_OMM_VERS = 2.0
CREATION_DATE  = 
ORIGINATOR     = 

OBJECT_NAME    = KUIPER-00260
OBJECT_ID      = 2026-030Z
CENTER_NAME    = EARTH
REF_FRAME      = TEME
TIME_SYSTEM    = UTC
MEAN_ELEMENT_THEORY = SGP/SGP4

EPOCH          = 2026-02-24T08:22:05.047392
MEAN_MOTION    = 15.35812457
ECCENTRICITY   = .0001232
INCLINATION    = 51.8807
RA_OF_ASC_NODE = 283.4009
ARG_OF_PERICENTER = 81.6370
MEAN_ANOMALY   = 278.4756

EPHEMERIS_TYPE = 0
CLASSIFICATION_TYPE = U
NORAD_CAT_ID   = 67787
ELEMENT_SET_NO = 999
REV_AT_EPOCH   = 295
BSTAR          = .56236E-3
MEAN_MOTION_DOT = .19564E-3
MEAN_MOTION_DDOT = 0

CCSDS_OMM_VERS = 2.0
CREATION_DATE  = 
ORIGINATOR     = 

OBJECT_NAME    = KUIPER-00262
OBJECT_ID      = 2026-030AA
CENTER_NAME    = EARTH
REF_FRAME      = TEME
TIME_SYSTEM    = UTC
MEAN_ELEMENT_THEORY = SGP/SGP4

EPOCH          = 2026-02-24T05:12:15.854688
MEAN_MOTION    = 15.36110471
ECCENTRICITY   = .0001497
INCLINATION    = 51.8824
RA_OF_ASC_NODE = 284.0190
ARG_OF_PERICENTER = 118.6969
MEAN_ANOMALY   = 241.4168

EPHEMERIS_TYPE = 0
CLASSIFICATION_TYPE = U
NORAD_CAT_ID   = 67788
ELEMENT_SET_NO = 999
REV_AT_EPOCH   = 302
BSTAR          = .68506E-3
MEAN_MOTION_DOT = .24163E-3
MEAN_MOTION_DDOT = 0

CCSDS_OMM_VERS = 2.0
CREATION_DATE  = 
ORIGINATOR     = 

OBJECT_NAME    = KUIPER-00266
OBJECT_ID      = 2026-030AB
CENTER_NAME    = EARTH
REF_FRAME      = TEME
TIME_SYSTEM    = UTC
MEAN_ELEMENT_THEORY = SGP/SGP4

EPOCH          = 2026-02-24T05:59:14.732448
MEAN_MOTION    = 15.31486774
ECCENTRICITY   = .002187
INCLINATION    = 51.8809
RA_OF_ASC_NODE = 284.2250
ARG_OF_PERICENTER = 32.9184
MEAN_ANOMALY   = 327.3158

EPHEMERIS_TYPE = 0
CLASSIFICATION_TYPE = U
NORAD_CAT_ID   = 67789
ELEMENT_SET_NO = 999
REV_AT_EPOCH   = 302
BSTAR          = .73295E-3
MEAN_MOTION_DOT = .22471E-3
MEAN_MOTION_DDOT = 0

