KUIPER-00214            
1 67778U 26030Q   26055.34616693  .00019658  00000+0  55884-3 0  9993
2 67778  51.8852 283.3884 0001728 151.4649 208.6433 15.36155902  3040
KUIPER-00215            
1 67779U 26030R   26055.36318994  .00019318  00000+0  58897-3 0  9999
2 67779  51.8851 283.4995 0009977  20.8378 339.3012 15.33922240  3045
KUIPER-00218            
1 67780U 26030S   26055.22778814  .00024318  00000+0  72235-3 0  9995
2 67780  51.8850 284.0909 0006269  17.4563 342.6637 15.34627764  3029
KUIPER-00220            
1 67781U 26030T   26055.23115257  .00024137  00000+0  72783-3 0  9990
2 67781  51.8825 284.1095 0007905  18.2408 341.8860 15.34145938  3021
KUIPER-00222            
1 67782U 26030U   26055.24187932  .00025530  00000+0  80900-3 0  9999
2 67782  51.8817 284.1765 0017092  23.9576 336.2201 15.32425930  3022
KUIPER-00223            
1 67783U 26030V   26055.36525663  .00018533  00000+0  57015-3 0  9996
2 67783  51.8838 283.5106 0011929  20.7383 339.4084 15.33646312  3048
KUIPER-00225            
1 67784U 26030W   26055.22289666  .00024457  00000+0  71195-3 0  9999
2 67784  51.8823 284.0570 0003559   9.1114 350.9935 15.35271607  3021
KUIPER-00226            
1 67785U 26030X   26055.24716035 -.00002153  00000+0 -56976-4 0  9999
2 67785  51.8812 284.2115 0019693  30.7595 329.4539 15.31590390  3026
KUIPER-00259            
1 67786U 26030Y   26055.35925579  .00019376  00000+0  58101-3 0  9991
2 67786  51.8820 283.4686 0007754  11.9754 348.1414 15.34464993  3047
KUIPER-00260            
1 67787U 26030Z   26055.34866953  .00019564  00000+0  56236-3 0  9997
2 67787  51.8807 283.4009 0001232  81.6370 278.4756 15.35812457  2951
KUIPER-00262            
1 67788U 26030AA  26055.21685017  .00024163  00000+0  68506-3 0  9998
2 67788  51.8824 284.0190 0001497 118.6969 241.4168 15.36110471  3021
KUIPER-00266            
1 67789U 26030AB  26055.24947607  .00022471  00000+0  73295-3 0  9999
2 67789  51.8809 284.2250 0021870  32.9184 327.3158 15.31486774  3028
